[{"OBJECT_NAME":"SDA_1683","OBJECT_ID":"2025-230V","EPOCH":"2026-03-09T17:24:00.607392","MEAN_MOTION":13.84109242,"ECCENTRICITY":0.0001019,"INCLINATION":81.3007,"RA_OF_ASC_NODE":303.9867,"ARG_OF_PERICENTER":88.3759,"MEAN_ANOMALY":271.7514,"EPHEMERIS_TYPE":0,"CLASSIFICATION_TYPE":"U","NORAD_CAT_ID":65993,"ELEMENT_SET_NO":999,"REV_AT_EPOCH":2004,"BSTAR":-0.0044459645,"MEAN_MOTION_DOT":-4.932e-5,"MEAN_MOTION_DDOT":0},{"OBJECT_NAME":"NIMBUS 7","OBJECT_ID":"1978-098A","EPOCH":"2026-03-09T15:43:26.767488","MEAN_MOTION":13.84509789,"ECCENTRICITY":0.0008958,"INCLINATION":99.485,"RA_OF_ASC_NODE":311.9841,"ARG_OF_PERICENTER":170.2059,"MEAN_ANOMALY":189.9271,"EPHEMERIS_TYPE":0,"CLASSIFICATION_TYPE":"U","NORAD_CAT_ID":11080,"ELEMENT_SET_NO":999,"REV_AT_EPOCH":39292,"BSTAR":2.6718e-5,"MEAN_MOTION_DOT":-1.6e-7,"MEAN_MOTION_DDOT":0}]
